ICEYE-X40               
1 60549U 24149CK  26068.75921699  .00003253  00000+0  28352-3 0  9999
2 60549  97.6865 146.8579 0005983  65.2061 294.9783 14.97556326 85195
STARLINK-34658          
1 64802U 25150N   26068.56192766  .00007747  00000+0  65653-3 0  9999
2 64802  70.0025 134.9375 0002895 266.4041  93.6787 14.98316249 36494
